{
  "type": "FeatureCollection",
  "features": [
    {
      "type": "Feature",
      "id": 31232,
      "geometry": {
        "type": "Polygon",
        "coordinates": [
          [
            [
              -80.31855000041249,
              25.762916000011696
            ],
            [
              -80.3186080001388,
              25.76288100005363
            ],
            [
              -80.31854299984147,
              25.76282600021427
            ],
            [
              -80.31846500002366,
              25.762784999699623
            ],
            [
              -80.31835100022084,
              25.762735000394645
            ],
            [
              -80.31824300026582,
              25.76271099987939
            ],
            [
              -80.31808699973189,
              25.76268300035085
            ],
            [
              -80.31777399973744,
              25.76263999987735
            ],
            [
              -80.31767699965307,
              25.762643999696266
            ],
            [
              -80.3174259995829,
              25.762655000006667
            ],
            [
              -80.31661100034644,
              25.762689000077017
            ],
            [
              -80.31573199973924,
              25.762716999604166
            ],
            [
              -80.31468499980087,
              25.76276399986465
            ],
            [
              -80.31382299981043,
              25.762782999792563
            ],
            [
              -80.31186000035325,
              25.762830000026916
            ],
            [
              -80.3110269997768,
              25.762853999709108
            ],
            [
              -80.31021099981712,
              25.762898000057668
            ],
            [
              -80.30981400015709,
              25.76289600015249
            ],
            [
              -80.30937999978882,
              25.762914000106825
            ],
            [
              -80.30854700011069,
              25.762948000103027
            ],
            [
              -80.30800599961229,
              25.762963000193427
            ],
            [
              -80.30743400005008,
              25.76297900023382
            ],
            [
              -80.30667099979384,
              25.76302099982396
            ],
            [
              -80.30586800025294,
              25.763029000245062
            ],
            [
              -80.3039009996995,
              25.763099000063587
            ],
            [
              -80.30286999965465,
              25.763131000105584
            ],
            [
              -80.30190300008222,
              25.763159000337506
            ],
            [
              -80.3008889997558,
              25.763193000263534
            ],
            [
              -80.2999000004421,
              25.76320499966402
            ],
            [
              -80.29963599995311,
              25.763220999671795
            ],
            [
              -80.29804199966857,
              25.763258000237748
            ],
            [
              -80.297881999835,
              25.763258000237748
            ],
            [
              -80.29690199984378,
              25.763306000233204
            ],
            [
              -80.29587800036995,
              25.763310999978806
            ],
            [
              -80.29499000044022,
              25.763343999912475
            ],
            [
              -80.29469199961609,
              25.76335400020926
            ],
            [
              -80.29425999979595,
              25.763369000248364
            ],
            [
              -80.29410800035829,
              25.763380999631092
            ],
            [
              -80.2938890000752,
              25.76337899973406
            ],
            [
              -80.29362399976132,
              25.763387000130983
            ],
            [
              -80.29332900020854,
              25.76339699961515
            ],
            [
              -80.29322399972824,
              25.763403000114256
            ],
            [
              -80.29264999961788,
              25.763419000095347
            ],
            [
              -80.2919049998033,
              25.763440999762445
            ],
            [
              -80.29126999959358,
              25.76346999986903
            ],
            [
              -80.29052899997696,
              25.76348499989348
            ],
            [
              -80.28996300026253,
              25.763488999683922
            ],
            [
              -80.28785199976903,
              25.76356299982823
            ],
            [
              -80.28672100016507,
              25.76359800039424
            ],
            [
              -80.28582499983945,
              25.76364400035965
            ],
            [
              -80.28562300017308,
              25.763647000198524
            ],
            [
              -80.28379700008495,
              25.76371000003271
            ],
            [
              -80.28307300018677,
              25.763731999645877
            ],
            [
              -80.28227999979329,
              25.76376600021682
            ],
            [
              -80.28175099988877,
              25.763787999819616
            ],
            [
              -80.28085999958603,
              25.763809000282468
            ],
            [
              -80.28066499959235,
              25.76382099962068
            ],
            [
              -80.27966200003492,
              25.763869000197545
            ],
            [
              -80.27925899962878,
              25.763888999892824
            ],
            [
              -80.27828799985838,
              25.76392900008229
            ],
            [
              -80.27776499980166,
              25.763927000194478
            ],
            [
              -80.27704799957615,
              25.763949999711176
            ],
            [
              -80.27628699986806,
              25.763987000049912
            ],
            [
              -80.27561499984841,
              25.76401100030721
            ],
            [
              -80.27480800010956,
              25.764033999807623
            ],
            [
              -80.27406199957177,
              25.76407100012018
            ],
            [
              -80.27351299957576,
              25.764095000360467
            ],
            [
              -80.27331500010736,
              25.764093999608974
            ],
            [
              -80.27259799988185,
              25.764116999902313
            ],
            [
              -80.27146399990485,
              25.76417000006888
            ],
            [
              -80.27082799987024,
              25.764189999713448
            ],
            [
              -80.27064799994518,
              25.764197000114113
            ],
            [
              -80.27044600027881,
              25.764204999646918
            ],
            [
              -80.26982100011483,
              25.764228999860137
            ],
            [
              -80.26944199999814,
              25.7642319996842
            ],
            [
              -80.2692419999816,
              25.76422500009459
            ],
            [
              -80.26758099974991,
              25.764284999799408
            ],
            [
              -80.26737800025862,
              25.764281999976692
            ],
            [
              -80.26700499998972,
              25.76430500023363
            ],
            [
              -80.26531600016894,
              25.76435900025653
            ],
            [
              -80.26330900033084,
              25.764424000401373
            ],
            [
              -80.26157399958097,
              25.764489999640745
            ],
            [
              -80.26130999999035,
              25.764494000206362
            ],
            [
              -80.26126300013466,
              25.76449600008458
            ],
            [
              -80.26085200023094,
              25.764510000040403
            ],
            [
              -80.2596100002989,
              25.764552999836557
            ],
            [
              -80.2592169999385,
              25.76457300022562
            ],
            [
              -80.25939000019088,
              25.767808999700403
            ],
            [
              -80.25940600008438,
              25.768126000253496
            ],
            [
              -80.25840699982659,
              25.768154000116194
            ],
            [
              -80.25841799969724,
              25.769123000337906
            ],
            [
              -80.258463999728,
              25.77022799972114
            ],
            [
              -80.258463999728,
              25.77055699975133
            ],
            [
              -80.25540699957847,
              25.770640000138645
            ],
            [
              -80.25543900026385,
              25.77099500006784
            ],
            [
              -80.25544699976145,
              25.77135599984117
            ],
            [
              -80.25483199964322,
              25.771376999774013
            ],
            [
              -80.25484900025997,
              25.771835000274308
            ],
            [
              -80.25455999965665,
              25.771835000274308
            ],
            [
              -80.2541689998444,
              25.771852999682043
            ],
            [
              -80.25415100030105,
              25.771440000359245
            ],
            [
              -80.25414999957783,
              25.771402999916873
            ],
            [
              -80.25445199970162,
              25.77138800008405
            ],
            [
              -80.25444599985384,
              25.771135999859027
            ],
            [
              -80.25444800040196,
              25.771033999596543
            ],
            [
              -80.25441099969375,
              25.770077999822693
            ],
            [
              -80.25519300021655,
              25.77006800009239
            ],
            [
              -80.25536499974568,
              25.770025999759728
            ],
            [
              -80.25533399978355,
              25.76953399984086
            ],
            [
              -80.25532000043816,
              25.76916600008096
            ],
            [
              -80.25531100021733,
              25.76886799964153
            ],
            [
              -80.25528500027806,
              25.768200999841977
            ],
            [
              -80.25525500014085,
              25.7676709997387
            ],
            [
              -80.25525199976778,
              25.767472999935467
            ],
            [
              -80.25522099980564,
              25.766913999750297
            ],
            [
              -80.2551820003459,
              25.766092999708835
            ],
            [
              -80.25516999975203,
              25.7655639998311
            ],
            [
              -80.25513999961478,
              25.764686999628253
            ],
            [
              -80.2550769998656,
              25.76300099998249
            ],
            [
              -80.25504599990346,
              25.762186000136502
            ],
            [
              -80.25501999996419,
              25.761420000273368
            ],
            [
              -80.25500499989558,
              25.761024999677907
            ],
            [
              -80.25499499984983,
              25.76065200037935
            ],
            [
              -80.2549780001314,
              25.760324000377082
            ],
            [
              -80.25496899991057,
              25.759897000084564
            ],
            [
              -80.2549510003672,
              25.759616000312338
            ],
            [
              -80.25493999959825,
              25.75912800006341
            ],
            [
              -80.25492999955249,
              25.758838000208794
            ],
            [
              -80.25491200000916,
              25.758348000016788
            ],
            [
              -80.25490199996342,
              25.758047999941496
            ],
            [
              -80.25483199964322,
              25.757249000080684
            ],
            [
              -80.25481199955173,
              25.756729999676548
            ],
            [
              -80.25479700038143,
              25.756580999718235
            ],
            [
              -80.25479999985616,
              25.756034000152468
            ],
            [
              -80.25475800002336,
              25.755224000306168
            ],
            [
              -80.25471100016772,
              25.754037999869993
            ],
            [
              -80.25473799993189,
              25.75332300012133
            ],
            [
              -80.25463599982464,
              25.752467000162014
            ],
            [
              -80.25460200038776,
              25.751584000026376
            ],
            [
              -80.25456899987748,
              25.74986199980534
            ],
            [
              -80.25457300007545,
              25.748905000200015
            ],
            [
              -80.25453999956517,
              25.748057999846907
            ],
            [
              -80.25451199997607,
              25.74733900017778
            ],
            [
              -80.25450100010542,
              25.747072000214473
            ],
            [
              -80.25448100001394,
              25.74657099984581
            ],
            [
              -80.25446199974735,
              25.746135000237878
            ],
            [
              -80.25444800040196,
              25.74580699979003
            ],
            [
              -80.25443199961013,
              25.745367000214245
            ],
            [
              -80.2544149998917,
              25.745028999852753
            ],
            [
              -80.25440800021899,
              25.74484600027562
            ],
            [
              -80.25439899999817,
              25.74456499968647
            ],
            [
              -80.25438499975446,
              25.744213999661245
            ],
            [
              -80.25436899986096,
              25.743813000228442
            ],
            [
              -80.25433200005101,
              25.742985999963796
            ],
            [
              -80.25432700002814,
              25.74275599959903
            ],
            [
              -80.25432200000527,
              25.74255200039466
            ],
            [
              -80.25431299978443,
              25.74246899979308
            ],
            [
              -80.25443800035623,
              25.742474999731286
            ],
            [
              -80.2548659999784,
              25.74245499966641
            ],
            [
              -80.25624699982762,
              25.7423919998851
            ],
            [
              -80.25622900028426,
              25.742006999596743
            ],
            [
              -80.25620300034501,
              25.741316000248656
            ],
            [
              -80.25620699964465,
              25.74054500021238
            ],
            [
              -80.25622099988836,
              25.739811999954757
            ],
            [
              -80.25618800027638,
              25.739050999786524
            ],
            [
              -80.25617599968251,
              25.73870300012638
            ],
            [
              -80.25720099987957,
              25.738667000159204
            ],
            [
              -80.25816800035031,
              25.738628999867306
            ],
            [
              -80.25810399987789,
              25.736776999919183
            ],
            [
              -80.25803000025805,
              25.734921999680545
            ],
            [
              -80.2579709998085,
              25.733090000261754
            ],
            [
              -80.25791800010505,
              25.732180000133464
            ],
            [
              -80.25689799993086,
              25.73220999999083
            ],
            [
              -80.2558729997338,
              25.732220999882706
            ],
            [
              -80.25587000025907,
              25.732010999932267
            ],
            [
              -80.25586799971093,
              25.731884000379512
            ],
            [
              -80.2558650002362,
              25.731288999623153
            ],
            [
              -80.25584199977166,
              25.730913000162552
            ],
            [
              -80.25581800038053,
              25.730616000266654
            ],
            [
              -80.25577599964942,
              25.730074999871167
            ],
            [
              -80.25574399986236,
              25.729396000327668
            ],
            [
              -80.25572299994597,
              25.72879500024859
            ],
            [
              -80.25569100015893,
              25.728187000274044
            ],
            [
              -80.25567199989234,
              25.727549999651725
            ],
            [
              -80.25768200010351,
              25.72748299986943
            ],
            [
              -80.25866499956945,
              25.727449000243265
            ],
            [
              -80.25850200026116,
              25.7249829999592
            ],
            [
              -80.25929099955835,
              25.724937999862878
            ],
            [
              -80.25948800010015,
              25.724925999834294
            ],
            [
              -80.26161499958886,
              25.724829000098456
            ],
            [
              -80.26159100019774,
              25.7243509997441
            ],
            [
              -80.26155199983965,
              25.723607000103815
            ],
            [
              -80.26151699967957,
              25.722906000158662
            ],
            [
              -80.26149900013621,
              25.72268000014183
            ],
            [
              -80.26147999986965,
              25.722211999765626
            ],
            [
              -80.26146099960309,
              25.72177099995145
            ],
            [
              -80.2614489999075,
              25.72148100037162
            ],
            [
              -80.26141399974742,
              25.720791999672905
            ],
            [
              -80.26137000026479,
              25.719937999915793
            ],
            [
              -80.26134199977739,
              25.719053999760696
            ],
            [
              -80.26130599979237,
              25.718212999891783
            ],
            [
              -80.26127499983023,
              25.717333999928165
            ],
            [
              -80.26126300013466,
              25.71708599969269
            ],
            [
              -80.26125300008893,
              25.71648499972204
            ],
            [
              -80.26121100025614,
              25.71563299969001
            ],
            [
              -80.26120500040835,
              25.71538399960283
            ],
            [
              -80.26118500031686,
              25.714906999686836
            ],
            [
              -80.26116000020251,
              25.714145000001864
            ],
            [
              -80.26113400026324,
              25.713383000292684
            ],
            [
              -80.26110499995092,
              25.712670999907743
            ],
            [
              -80.26107800018674,
              25.71191199999717
            ],
            [
              -80.26105600044544,
              25.711160999967674
            ],
            [
              -80.26103600035395,
              25.710392000241036
            ],
            [
              -80.26102100028533,
              25.709732999930246
            ],
            [
              -80.26101100023959,
              25.70948300004395
            ],
            [
              -80.26100299984367,
              25.709041999987235
            ],
            [
              -80.25956400026814,
              25.70908299961909
            ],
            [
              -80.25709899977232,
              25.709158999649503
            ],
            [
              -80.25703900039618,
              25.70914499964755
            ],
            [
              -80.25692999971791,
              25.709148999648267
            ],
            [
              -80.25674300012017,
              25.709156000053916
            ],
            [
              -80.2566669999522,
              25.709158000054103
            ],
            [
              -80.25620699964465,
              25.709174000054446
            ],
            [
              -80.25349799964967,
              25.709266000014733
            ],
            [
              -80.25322400001329,
              25.709276000006096
            ],
            [
              -80.25280899991158,
              25.709327000353845
            ],
            [
              -80.24845399975352,
              25.70949700000613
            ],
            [
              -80.24775699961953,
              25.709520999937475
            ],
            [
              -80.23768700026889,
              25.709562999805698
            ],
            [
              -80.23762299979649,
              25.709566000200418
            ],
            [
              -80.22227100000002,
              25.709578999751617
            ],
            [
              -80.19562600028915,
              25.709835999801843
            ],
            [
              -80.19299199973895,
              25.709861000063714
            ],
            [
              -80.19116999984877,
              25.709878999957606
            ],
            [
              -80.1860179999976,
              25.728048000159987
            ],
            [
              -80.18566900001812,
              25.72927800010208
            ],
            [
              -80.18516799970271,
              25.73052200018318
            ],
            [
              -80.18073599955176,
              25.73050899968368
            ],
            [
              -80.17473699977873,
              25.73048200007347
            ],
            [
              -80.1737259998254,
              25.730477999980838
            ],
            [
              -80.17371400012982,
              25.73384199959816
            ],
            [
              -80.17372800037352,
              25.737176000098945
            ],
            [
              -80.17374199971891,
              25.740493000163166
            ],
            [
              -80.17371599977965,
              25.74220999961001
            ],
            [
              -80.17369999988613,
              25.743295000301785
            ],
            [
              -80.17371099975676,
              25.743876000065505
            ],
            [
              -80.17288099955337,
              25.743149000030122
            ],
            [
              -80.17257599995484,
              25.742874000200633
            ],
            [
              -80.17121400037222,
              25.74164899999581
            ],
            [
              -80.16796399987885,
              25.73875500014968
            ],
            [
              -80.16578499961328,
              25.736779999627423
            ],
            [
              -80.164849000003,
              25.7367759997467
            ],
            [
              -80.167489000401,
              25.739145999751518
            ],
            [
              -80.16791000035047,
              25.739521999873052
            ],
            [
              -80.16797700029763,
              25.739583000068986
            ],
            [
              -80.16699300010845,
              25.740482000227626
            ],
            [
              -80.16678700024414,
              25.74029599969248
            ],
            [
              -80.1664189999981,
              25.73996400034551
            ],
            [
              -80.16630099999732,
              25.739857000085387
            ],
            [
              -80.16614199998867,
              25.73971400007884
            ],
            [
              -80.16555399963461,
              25.739182999725877
            ],
            [
              -80.16361899976651,
              25.737436000091513
            ],
            [
              -80.16357699993372,
              25.73745299969152
            ],
            [
              -80.16340500040461,
              25.737229000149803
            ],
            [
              -80.15769199996353,
              25.739663999962413
            ],
            [
              -80.15766299965122,
              25.739677000269847
            ],
            [
              -80.15766500019936,
              25.739543999920798
            ],
            [
              -80.15767000022223,
              25.739480000064837
            ],
            [
              -80.1576750002451,
              25.73878100015276
            ],
            [
              -80.15767600007001,
              25.738687000052405
            ],
            [
              -80.1576810000929,
              25.73809800033088
            ],
            [
              -80.1576819999178,
              25.737983000329024
            ],
            [
              -80.15768500029085,
              25.737892000086827
            ],
            [
              -80.15769000031372,
              25.737720000230215
            ],
            [
              -80.15769199996353,
              25.737642000316722
            ],
            [
              -80.15769500033659,
              25.73748600033612
            ],
            [
              -80.15771399970485,
              25.737442000283835
            ],
            [
              -80.15778999987285,
              25.73726200004739
            ],
            [
              -80.1579410003839,
              25.736963000297397
            ],
            [
              -80.15811700011099,
              25.736667999679725
            ],
            [
              -80.15836300015827,
              25.73631799997221
            ],
            [
              -80.15873200022922,
              25.735879999607693
            ],
            [
              -80.15891299997918,
              25.73563499975298
            ],
            [
              -80.1590479996984,
              25.73542000005895
            ],
            [
              -80.15918199959269,
              25.7351649998236
            ],
            [
              -80.15924799971494,
              25.735017999896336
            ],
            [
              -80.15931200018736,
              25.734852000249827
            ],
            [
              -80.15935400002014,
              25.7347200003557
            ],
            [
              -80.15937300028672,
              25.73457400006914
            ],
            [
              -80.1593719995635,
              25.734519000069866
            ],
            [
              -80.15937099973858,
              25.73444400025057
            ],
            [
              -80.15934599962424,
              25.73429899981833
            ],
            [
              -80.1593010003167,
              25.73415799998737
            ],
            [
              -80.15925600011086,
              25.73407700038765
            ],
            [
              -80.15919199963844,
              25.733985000195904
            ],
            [
              -80.15911700019367,
              25.733896999910645
            ],
            [
              -80.15898599977413,
              25.733776999710976
            ],
            [
              -80.15867199995475,
              25.7333140003205
            ],
            [
              -80.15665500007091,
              25.73131800029621
            ],
            [
              -80.1551620000687,
              25.73032500018038
            ],
            [
              -80.15452299966103,
              25.73051800009188
            ],
            [
              -80.15279899968014,
              25.731192000222634
            ],
            [
              -80.1510219999958,
              25.732058000203857
            ],
            [
              -80.14899699971605,
              25.733243999942868
            ],
            [
              -80.14857599976655,
              25.73364299984384
            ],
            [
              -80.14817699955837,
              25.73373299990413
            ],
            [
              -80.14692999960347,
              25.734201999636923
            ],
            [
              -80.14662900020289,
              25.734315999866997
            ],
            [
              -80.14595800000816,
              25.734618999755334
            ],
            [
              -80.14441700032539,
              25.735421999617536
            ],
            [
              -80.14266900005505,
              25.736726000012627
            ],
            [
              -80.14236899958108,
              25.736736000122942
            ],
            [
              -80.14156400039036,
              25.736762999931162
            ],
            [
              -80.14020600010738,
              25.737355999656415
            ],
            [
              -80.1390820001761,
              25.73788499975409
            ],
            [
              -80.13799199968172,
              25.73846499991624
            ],
            [
              -80.13748500041683,
              25.738860000282926
            ],
            [
              -80.1355410003279,
              25.740443000374476
            ],
            [
              -80.13508600004324,
              25.74103000033816
            ],
            [
              -80.13338999965144,
              25.74473000022526
            ],
            [
              -80.13253799970674,
              25.748547000346253
            ],
            [
              -80.13217899968156,
              25.749924999671215
            ],
            [
              -80.1357160002301,
              25.75253599969448
            ],
            [
              -80.13834700040728,
              25.754546999674226
            ],
            [
              -80.13979199983058,
              25.755651999616827
            ],
            [
              -80.13996699973278,
              25.755785999745534
            ],
            [
              -80.14030999986446,
              25.7560759997721
            ],
            [
              -80.14035000004742,
              25.756092999941398
            ],
            [
              -80.1403989995529,
              25.756122000224593
            ],
            [
              -80.14123999962695,
              25.756740999725785
            ],
            [
              -80.14128099963483,
              25.75676699983815
            ],
            [
              -80.14132400019085,
              25.756792999944775
            ],
            [
              -80.14202799999755,
              25.757313000073214
            ],
            [
              -80.14205499976173,
              25.75733800006091
            ],
            [
              -80.14231800042577,
              25.757557999725723
            ],
            [
              -80.1426859997735,
              25.757852000259614
            ],
            [
              -80.14291900030031,
              25.75801900012865
            ],
            [
              -80.14418899982144,
              25.75896100013599
            ],
            [
              -80.14452399955721,
              25.759200999705985
            ],
            [
              -80.14509699984262,
              25.75962800007434
            ],
            [
              -80.14882099998894,
              25.762374000289707
            ],
            [
              -80.14908799995263,
              25.763903999864322
            ],
            [
              -80.14908700012772,
              25.763958000069618
            ],
            [
              -80.14907700008199,
              25.764001000065754
            ],
            [
              -80.14905899964032,
              25.764040000274516
            ],
            [
              -80.14900000008909,
              25.764107999612186
            ],
            [
              -80.1489520004085,
              25.764140000191198
            ],
            [
              -80.14889700015692,
              25.764154000188988
            ],
            [
              -80.14847799985726,
              25.764172999894416
            ],
            [
              -80.14804799968695,
              25.764191999596818
            ],
            [
              -80.1444259996479,
              25.76429999972088
            ],
            [
              -80.14408400023945,
              25.764308999996466
            ],
            [
              -80.14170199958431,
              25.76437799992917
            ],
            [
              -80.14118199990062,
              25.764399000287625
            ],
            [
              -80.1400110001137,
              25.764424000401373
            ],
            [
              -80.13995300038738,
              25.764413000254883
            ],
            [
              -80.13967899985268,
              25.7644270002205
            ],
            [
              -80.13942100010982,
              25.76444000024485
            ],
            [
              -80.13917099986456,
              25.764454000207248
            ],
            [
              -80.13867600029523,
              25.764467000228674
            ],
            [
              -80.13863000026448,
              25.76446900010736
            ],
            [
              -80.13860099995217,
              25.76452899968885
            ],
            [
              -80.13861400037096,
              25.76474899978255
            ],
            [
              -80.13758699962577,
              25.764765000391257
            ],
            [
              -80.13773499976377,
              25.76486099995313
            ],
            [
              -80.13822699985836,
              25.765163999603168
            ],
            [
              -80.13690200008564,
              25.765163999603168
            ],
            [
              -80.13811399988046,
              25.765826999768315
            ],
            [
              -80.13840099993563,
              25.76593300016886
            ],
            [
              -80.13907999962797,
              25.766186999965
            ],
            [
              -80.14140799985645,
              25.76705700017996
            ],
            [
              -80.14447000002883,
              25.7686489998053
            ],
            [
              -80.15207599960686,
              25.771920000329857
            ],
            [
              -80.16220100010739,
              25.776274000283042
            ],
            [
              -80.16314799958833,
              25.77667900026832
            ],
            [
              -80.16790500032762,
              25.778718000386597
            ],
            [
              -80.16905000017528,
              25.779208999621364
            ],
            [
              -80.16900699961926,
              25.779493999984805
            ],
            [
              -80.16896899998443,
              25.779700000059623
            ],
            [
              -80.16892100030384,
              25.77990199973065
            ],
            [
              -80.16846500019426,
              25.78185600011124
            ],
            [
              -80.16695999959818,
              25.786213000294836
            ],
            [
              -80.16615399968423,
              25.788886999866605
            ],
            [
              -80.16584599971266,
              25.790036000386475
            ],
            [
              -80.16575500037438,
              25.790238000248614
            ],
            [
              -80.16573699993272,
              25.79041800025224
            ],
            [
              -80.1657150001914,
              25.790494999747942
            ],
            [
              -80.16568500005418,
              25.790600999948825
            ],
            [
              -80.16565400009205,
              25.790718000190274
            ],
            [
              -80.16498899974508,
              25.793158999607463
            ],
            [
              -80.16496600017885,
              25.79324300005413
            ],
            [
              -80.16412799957955,
              25.796316000011704
            ],
            [
              -80.16386499981381,
              25.797191000011576
            ],
            [
              -80.16325300006864,
              25.79936900019639
            ],
            [
              -80.16263600030057,
              25.80157099992602
            ],
            [
              -80.16173999997494,
              25.804779000113037
            ],
            [
              -80.16112599968162,
              25.80696499983542
            ],
            [
              -80.16057500003578,
              25.808784999846914
            ],
            [
              -80.16021099998773,
              25.81007599991492
            ],
            [
              -80.16008999961389,
              25.810502999924545
            ],
            [
              -80.16004299975823,
              25.810670999625753
            ],
            [
              -80.15994800022199,
              25.8110100001892
            ],
            [
              -80.15939699967785,
              25.81296699996836
            ],
            [
              -80.15946799982297,
              25.816197000093595
            ],
            [
              -80.15957999997596,
              25.818989000153397
            ],
            [
              -80.15959599986948,
              25.819630999932585
            ],
            [
              -80.15979000003824,
              25.8220980000854
            ],
            [
              -80.15990300001616,
              25.824193000039553
            ],
            [
              -80.16006100019989,
              25.826913999636506
            ],
            [
              -80.16023199990413,
              25.828310999807382
            ],
            [
              -80.160497000218,
              25.83333200015122
            ],
            [
              -80.16067299994509,
              25.836767000363714
            ],
            [
              -80.16080500018957,
              25.839805000012966
            ],
            [
              -80.16093499988591,
              25.842782999710323
            ],
            [
              -80.16110700031336,
              25.8484320001658
            ],
            [
              -80.16127100034488,
              25.853814000309697
            ],
            [
              -80.16138000012482,
              25.855786000213246
            ],
            [
              -80.16176799956403,
              25.855772999699727
            ],
            [
              -80.16346800015378,
              25.85567300030327
            ],
            [
              -80.17127499957326,
              25.85560800008434
            ],
            [
              -80.17165200004013,
              25.855590999635652
            ],
            [
              -80.17560100031734,
              25.85546099988027
            ],
            [
              -80.17594299972579,
              25.8554530000399
            ],
            [
              -80.1767250002486,
              25.855420999864627
            ],
            [
              -80.17751899956865,
              25.85539500037264
            ],
            [
              -80.17904300043132,
              25.85536200020081
            ],
            [
              -80.17909399958663,
              25.85535500033463
            ],
            [
              -80.17974200021514,
              25.855335999887433
            ],
            [
              -80.1808300001614,
              25.855299999755044
            ],
            [
              -80.18431400010819,
              25.85520099994074
            ],
            [
              -80.18443999960658,
              25.855197999994086
            ],
            [
              -80.1849059997619,
              25.85518700018896
            ],
            [
              -80.1854620003289,
              25.855171999644643
            ],
            [
              -80.18541100027527,
              25.85399299989832
            ],
            [
              -80.18540000040461,
              25.85372799999097
            ],
            [
              -80.18538100013804,
              25.853269999928322
            ],
            [
              -80.18536699989434,
              25.85291899991865
            ],
            [
              -80.1853579996735,
              25.852717000249115
            ],
            [
              -80.18534699980285,
              25.852424999756703
            ],
            [
              -80.18531699966563,
              25.851707999970717
            ],
            [
              -80.18530099977208,
              25.85158200003953
            ],
            [
              -80.18529999994719,
              25.851507999876215
            ],
            [
              -80.1853710000923,
              25.851505999849312
            ],
            [
              -80.18731600000613,
              25.851454999960175
            ],
            [
              -80.18744099967958,
              25.851546000380992
            ],
            [
              -80.18757899977186,
              25.851542000328422
            ],
            [
              -80.18781999979629,
              25.851537000262553
            ],
            [
              -80.1878080001007,
              25.851825999681896
            ],
            [
              -80.18780700027581,
              25.851852999969218
            ],
            [
              -80.18781099957545,
              25.851924999896834
            ],
            [
              -80.18785499995637,
              25.852140000216934
            ],
            [
              -80.18789400031443,
              25.852229000095917
            ],
            [
              -80.18792799975131,
              25.85226300034084
            ],
            [
              -80.18797200013225,
              25.852345000082863
            ],
            [
              -80.18829099997446,
              25.852340000050937
            ],
            [
              -80.1883770001882,
              25.852380000300503
            ],
            [
              -80.1884120003483,
              25.852396000396556
            ],
            [
              -80.18862200041056,
              25.85255699962564
            ],
            [
              -80.18880599963529,
              25.852951999963935
            ],
            [
              -80.18916700020861,
              25.85298099999612
            ],
            [
              -80.18972000040257,
              25.85292299992461
            ],
            [
              -80.19016899994114,
              25.85310500005353
            ],
            [
              -80.19087500029597,
              25.85337399973108
            ],
            [
              -80.19146799977459,
              25.853512000136575
            ],
            [
              -80.19210999965702,
              25.85359199982924
            ],
            [
              -80.19227500041177,
              25.8535839998624
            ],
            [
              -80.19271899992746,
              25.853562999946895
            ],
            [
              -80.19302000022634,
              25.85351900011182
            ],
            [
              -80.19380199985085,
              25.85343500038125
            ],
            [
              -80.19396199968442,
              25.853386999700014
            ],
            [
              -80.19443500041075,
              25.85324299996459
            ],
            [
              -80.19507700029317,
              25.85307600005176
            ],
            [
              -80.19548099962589,
              25.853066000049495
            ],
            [
              -80.19658100016602,
              25.853038000038687
            ],
            [
              -80.19709800037498,
              25.853025000031383
            ],
            [
              -80.19709599982683,
              25.852927999931904
            ],
            [
              -80.19708699960601,
              25.852546000383228
            ],
            [
              -80.1970799999333,
              25.85231499988807
            ],
            [
              -80.19706700041283,
              25.852027000056076
            ],
            [
              -80.1970590000169,
              25.85181999961723
            ],
            [
              -80.19703300007765,
              25.851252000199377
            ],
            [
              -80.19702800005477,
              25.851129999848947
            ],
            [
              -80.19701200016125,
              25.85060899973221
            ],
            [
              -80.1969800003742,
              25.84969100029221
            ],
            [
              -80.19695199988679,
              25.848591999903018
            ],
            [
              -80.19692799959735,
              25.847902999938345
            ],
            [
              -80.1979300002282,
              25.847878999690053
            ],
            [
              -80.19834100013192,
              25.847869000056733
            ],
            [
              -80.1984099997289,
              25.847868000012518
            ],
            [
              -80.19840800007907,
              25.847836000209867
            ],
            [
              -80.19861099957035,
              25.847829999942753
            ],
            [
              -80.19884499992209,
              25.847822999630736
            ],
            [
              -80.19884599974698,
              25.84785800037829
            ],
            [
              -80.19894100018153,
              25.847856000289664
            ],
            [
              -80.19893899963341,
              25.84781900026069
            ],
            [
              -80.1990009995577,
              25.847816000126723
            ],
            [
              -80.19922800023672,
              25.847807999769145
            ],
            [
              -80.1995510002769,
              25.84779700008501
            ],
            [
              -80.19997700024926,
              25.847783000265075
            ],
            [
              -80.19997700024926,
              25.847755999856954
            ],
            [
              -80.20047500019164,
              25.84775199967618
            ],
            [
              -80.20054700016166,
              25.84775099963096
            ],
            [
              -80.20100499992105,
              25.847739999941556
            ],
            [
              -80.20100699957088,
              25.847803000353828
            ],
            [
              -80.20118599967103,
              25.84779700008501
            ],
            [
              -80.20147500027433,
              25.847784000310014
            ],
            [
              -80.20169000035949,
              25.84777800004024
            ],
            [
              -80.20168699998644,
              25.847693000228105
            ],
            [
              -80.20168699998644,
              25.847661999615624
            ],
            [
              -80.2017179999486,
              25.847661999615624
            ],
            [
              -80.20349700018107,
              25.847604000169117
            ],
            [
              -80.2050489997345,
              25.847550000073433
            ],
            [
              -80.20507499967376,
              25.847569000154806
            ],
            [
              -80.2051399999711,
              25.847618000010243
            ],
            [
              -80.20520299972027,
              25.847664999753494
            ],
            [
              -80.20547700025499,
              25.847656000148138
            ],
            [
              -80.20615900032037,
              25.84763499998833
            ],
            [
              -80.20714099996141,
              25.847624000288135
            ],
            [
              -80.20755299969005,
              25.847609000401302
            ],
            [
              -80.20762800003314,
              25.847606000262022
            ],
            [
              -80.20773699981308,
              25.84760300012265
            ],
            [
              -80.207821000377,
              25.847599999983203
            ],
            [
              -80.20815299973967,
              25.84758900027974
            ],
            [
              -80.20821300001415,
              25.847591000372912
            ],
            [
              -80.2090120002554,
              25.84757499962673
            ],
            [
              -80.2090120002554,
              25.847612999778452
            ],
            [
              -80.20914600014969,
              25.847612999778452
            ],
            [
              -80.20955500040361,
              25.84760700030846
            ],
            [
              -80.20955100020565,
              25.847502000237156
            ],
            [
              -80.2096890002979,
              25.847498000047796
            ],
            [
              -80.20968599992486,
              25.847130999885422
            ],
            [
              -80.2096959999706,
              25.847024000097296
            ],
            [
              -80.20969799962043,
              25.846908999793936
            ],
            [
              -80.20969199977266,
              25.846281000024398
            ],
            [
              -80.20967099985626,
              25.845539000198798
            ],
            [
              -80.20965699961256,
              25.844821999895988
            ],
            [
              -80.2096170003279,
              25.844079999811097
            ],
            [
              -80.20958200016779,
              25.84343100028471
            ],
            [
              -80.20957299994696,
              25.843357999954495
            ],
            [
              -80.20956700009918,
              25.84328200013877
            ],
            [
              -80.20955200003057,
              25.84269800035102
            ],
            [
              -80.20954799983261,
              25.842633000276656
            ],
            [
              -80.20953699996194,
              25.842561999632174
            ],
            [
              -80.20951400039573,
              25.841942000176
            ],
            [
              -80.20952299971823,
              25.84187699968623
            ],
            [
              -80.20950500017489,
              25.841518999943332
            ],
            [
              -80.20891699982083,
              25.841537000087254
            ],
            [
              -80.20891199979798,
              25.841402999848448
            ],
            [
              -80.20891000014815,
              25.84136799961628
            ],
            [
              -80.20891099997306,
              25.841343000368067
            ],
            [
              -80.20890799960002,
              25.841281999948897
            ],
            [
              -80.20947599986259,
              25.841262000374503
            ],
            [
              -80.20945599977108,
              25.840836999928626
            ],
            [
              -80.209456999596,
              25.840756000397082
            ],
            [
              -80.20946099979396,
              25.840687999749427
            ],
            [
              -80.20941499976321,
              25.83976500036147
            ],
            [
              -80.20940100041783,
              25.83965899968348
            ],
            [
              -80.21089500024495,
              25.839608000345496
            ],
            [
              -80.21293899989297,
              25.83953600019641
            ],
            [
              -80.2149549999519,
              25.83947300023213
            ],
            [
              -80.21699500030027,
              25.839403000232487
            ],
            [
              -80.21719699996665,
              25.839396000230245
            ],
            [
              -80.21905099964387,
              25.839329999842224
            ],
            [
              -80.2211079997107,
              25.839266999768263
            ],
            [
              -80.22278700038407,
              25.839211999791786
            ],
            [
              -80.22318700041714,
              25.83919699964674
            ],
            [
              -80.22358200042736,
              25.839185999970365
            ],
            [
              -80.22432499969379,
              25.839154000244555
            ],
            [
              -80.22525199998157,
              25.839123999937893
            ],
            [
              -80.22556699962584,
              25.839114999682703
            ],
            [
              -80.22555699958009,
              25.838447999796575
            ],
            [
              -80.22552399996812,
              25.837851000343637
            ],
            [
              -80.22549200018106,
              25.837166999937153
            ],
            [
              -80.22546700006671,
              25.83659100018768
            ],
            [
              -80.22544299977727,
              25.836000999654143
            ],
            [
              -80.22544100012746,
              25.835959000043953
            ],
            [
              -80.22542299968579,
              25.83537599983383
            ],
            [
              -80.22540299959431,
              25.834781999899864
            ],
            [
              -80.22536199958641,
              25.834173000245038
            ],
            [
              -80.22533700037037,
              25.83357600024587
            ],
            [
              -80.22531100043112,
              25.8329649997043
            ],
            [
              -80.22530499968501,
              25.83291399990684
            ],
            [
              -80.22528299994372,
              25.832444999803627
            ],
            [
              -80.22528600031677,
              25.832380999931626
            ],
            [
              -80.22527299989797,
              25.83206700031078
            ],
            [
              -80.22526799987509,
              25.83196100001378
            ],
            [
              -80.2252629998522,
              25.83183899998162
            ],
            [
              -80.22528899979149,
              25.83173099992772
            ],
            [
              -80.2252960003625,
              25.831698999803006
            ],
            [
              -80.22532899997447,
              25.831560999822944
            ],
            [
              -80.22532700032464,
              25.8314930003595
            ],
            [
              -80.22531999975362,
              25.83130200008804
            ],
            [
              -80.22530100038536,
              25.830791999618217
            ],
            [
              -80.22576499999255,
              25.83078099996914
            ],
            [
              -80.22571200028909,
              25.829976999989334
            ],
            [
              -80.22573700040347,
              25.829913999787323
            ],
            [
              -80.2252129996235,
              25.82993499985838
            ],
            [
              -80.22518400020951,
              25.82950400038723
            ],
            [
              -80.22517199961563,
              25.829077000159014
            ],
            [
              -80.22515999992007,
              25.828971999813902
            ],
            [
              -80.22513099960774,
              25.828162000027625
            ],
            [
              -80.22513599963061,
              25.828091999805856
            ],
            [
              -80.22678199979369,
              25.828026000390523
            ],
            [
              -80.22877199991336,
              25.827946999792356
            ],
            [
              -80.228746999799,
              25.827249999947636
            ],
            [
              -80.22872199968465,
              25.826540000358566
            ],
            [
              -80.22869400009556,
              25.825811000216213
            ],
            [
              -80.2286689999812,
              25.825074000158782
            ],
            [
              -80.22862299995045,
              25.82429900001533
            ],
            [
              -80.22859399963814,
              25.823503000059254
            ],
            [
              -80.22856500022414,
              25.822820999722598
            ],
            [
              -80.2285359999118,
              25.822099999800812
            ],
            [
              -80.22850800032272,
              25.82136499982068
            ],
            [
              -80.22849599972884,
              25.82064399992794
            ],
            [
              -80.22845100042132,
              25.81987799999992
            ],
            [
              -80.22843899982745,
              25.819105000383697
            ],
            [
              -80.22840600021547,
              25.81840399987453
            ],
            [
              -80.22838100010111,
              25.817660999625748
            ],
            [
              -80.22835000013897,
              25.8169109998527
            ],
            [
              -80.22831800035192,
              25.816187999712387
            ],
            [
              -80.22826999977302,
              25.81543899982492
            ],
            [
              -80.22823799998596,
              25.814683000206497
            ],
            [
              -80.2281629996429,
              25.8139430002496
            ],
            [
              -80.22812800038113,
              25.813193999912947
            ],
            [
              -80.22814599992446,
              25.813034000029297
            ],
            [
              -80.22812300035825,
              25.812538000067907
            ],
            [
              -80.22811900016029,
              25.812447999914248
            ],
            [
              -80.22811199958927,
              25.81230300015182
            ],
            [
              -80.22810400009166,
              25.812135000339
            ],
            [
              -80.22808900002305,
              25.811890999724405
            ],
            [
              -80.22808200035038,
              25.811784999963674
            ],
            [
              -80.2280560004111,
              25.81132099960484
            ],
            [
              -80.22905099957262,
              25.811293000229174
            ],
            [
              -80.22972199976735,
              25.811277000236363
            ],
            [
              -80.23095799985161,
              25.81121899994109
            ],
            [
              -80.23213200001159,
              25.811197000239925
            ],
            [
              -80.23316200023153,
              25.81116500022625
            ],
            [
              -80.23415100044357,
              25.811137000005
            ],
            [
              -80.23518499996314,
              25.811108999777137
            ],
            [
              -80.236216000008,
              25.811076999739683
            ],
            [
              -80.23727399981703,
              25.8110470004043
            ],
            [
              -80.23826399985398,
              25.811012999638812
            ],
            [
              -80.24030300037745,
              25.81095899983008
            ],
            [
              -80.24026700039244,
              25.810015000365514
            ],
            [
              -80.24024999977568,
              25.809538999979296
            ],
            [
              -80.24229500014695,
              25.809478000153437
            ],
            [
              -80.2433830000932,
              25.80945400020007
            ],
            [
              -80.24338100044338,
              25.809388000101112
            ],
            [
              -80.2443189997035,
              25.809369000359855
            ],
            [
              -80.24628899973168,
              25.80930399977491
            ],
            [
              -80.24634300015833,
              25.809303000213543
            ],
            [
              -80.24837799958554,
              25.809235999659787
            ],
            [
              -80.25040399969022,
              25.809172000181793
            ],
            [
              -80.25243499981778,
              25.80911100016696
            ],
            [
              -80.2529930000346,
              25.809094999879452
            ],
            [
              -80.25335100023489,
              25.80908500020413
            ],
            [
              -80.25362800024432,
              25.809076999654526
            ],
            [
              -80.25382800026087,
              25.80907099984852
            ],
            [
              -80.25403300030028,
              25.809065000042178
            ],
            [
              -80.25424199963932,
              25.80905900023558
            ],
            [
              -80.254444000204,
              25.80905299961993
            ],
            [
              -80.25473299990901,
              25.809050000120727
            ],
            [
              -80.25494399979621,
              25.809042999941063
            ],
            [
              -80.25509500030726,
              25.80903799969693
            ],
            [
              -80.25623799960678,
              25.809000999663095
            ],
            [
              -80.25638200044514,
              25.808996000225918
            ],
            [
              -80.25649000040019,
              25.80902999995288
            ],
            [
              -80.25651100031658,
              25.80903700013331
            ],
            [
              -80.25657400006577,
              25.809055999927782
            ],
            [
              -80.25673499972424,
              25.80905200005645
            ],
            [
              -80.25752100044504,
              25.809031000325263
            ],
            [
              -80.25850399991097,
              25.80900299959964
            ],
            [
              -80.25850399991097,
              25.808543999931647
            ],
            [
              -80.25846899975089,
              25.80765299997153
            ],
            [
              -80.25845000038262,
              25.80718800002445
            ],
            [
              -80.25780299957901,
              25.806691999848564
            ],
            [
              -80.25644400036943,
              25.806745000401783
            ],
            [
              -80.25647600015648,
              25.807649000052837
            ],
            [
              -80.25648600020223,
              25.80813000022808
            ],
            [
              -80.25452899969451,
              25.808192999889524
            ],
            [
              -80.25442300028762,
              25.808200999690094
            ],
            [
              -80.25432799985306,
              25.808209000298834
            ],
            [
              -80.2524299997949,
              25.808254000376998
            ],
            [
              -80.25146900007026,
              25.808286999938225
            ],
            [
              -80.25039899966734,
              25.808322999816717
            ],
            [
              -80.24835599984424,
              25.808378000396154
            ],
            [
              -80.24630999964808,
              25.808437999602283
            ],
            [
              -80.24620599989099,
              25.808437000033585
            ],
            [
              -80.24574599958346,
              25.808437000033585
            ],
            [
              -80.24438099962777,
              25.80848000007981
            ],
            [
              -80.24428299971848,
              25.80848399997049
            ],
            [
              -80.24223200039776,
              25.80854900019662
            ],
            [
              -80.24022700020947,
              25.808618000273224
            ],
            [
              -80.24021499961559,
              25.808139999984043
            ],
            [
              -80.24017699998076,
              25.807230999715227
            ],
            [
              -80.24015900043742,
              25.806313999823722
            ],
            [
              -80.24014799966844,
              25.805794000146822
            ],
            [
              -80.24013599997289,
              25.805349000166487
            ],
            [
              -80.24010900020869,
              25.80446100005799
            ],
            [
              -80.24007599969842,
              25.803533999613183
            ],
            [
              -80.24005800015507,
              25.802600000252752
            ],
            [
              -80.24002499964479,
              25.801683000108813
            ],
            [
              -80.24000200007856,
              25.800664999928827
            ],
            [
              -80.23998399963692,
              25.799832999642366
            ],
            [
              -80.23994600000208,
              25.79891199971255
            ],
            [
              -80.23991699968977,
              25.798009999853228
            ],
            [
              -80.23991400021502,
              25.79791999998742
            ],
            [
              -80.23991400021502,
              25.797756000253916
            ],
            [
              -80.23989999997133,
              25.79739200015304
            ],
            [
              -80.23989999997133,
              25.79707200035874
            ],
            [
              -80.23986800018426,
              25.796111000163954
            ],
            [
              -80.23984399989484,
              25.7952279996044
            ],
            [
              -80.23981899978048,
              25.79427499975999
            ],
            [
              -80.24025599962347,
              25.794269999701562
            ],
            [
              -80.24187199964933,
              25.79422900034685
            ],
            [
              -80.24205800032048,
              25.794224999975064
            ],
            [
              -80.24241700034567,
              25.794216000351224
            ],
            [
              -80.24270500022577,
              25.794206999917897
            ],
            [
              -80.24294299987716,
              25.794204000042917
            ],
            [
              -80.24387199981474,
              25.794172999982237
            ],
            [
              -80.24502099986036,
              25.79414400010077
            ],
            [
              -80.24537400003778,
              25.794133000283303
            ],
            [
              -80.2454879998406,
              25.794129999597626
            ],
            [
              -80.24768899984747,
              25.794068000238266
            ],
            [
              -80.24780799967314,
              25.794065000359776
            ],
            [
              -80.24797699972754,
              25.79406099998243
            ],
            [
              -80.24825899975986,
              25.79405300003619
            ],
            [
              -80.24977400040169,
              25.79401499967746
            ],
            [
              -80.25007099960429,
              25.79400800022729
            ],
            [
              -80.25162999972872,
              25.79396999985415
            ],
            [
              -80.25196899966247,
              25.793959999711355
            ],
            [
              -80.25357200016782,
              25.793912999675978
            ],
            [
              -80.25388299961412,
              25.793904999719736
            ],
            [
              -80.25408199980578,
              25.79389999964571
            ],
            [
              -80.25414399973005,
              25.793898000263074
            ],
            [
              -80.25570100020467,
              25.79386200004677
            ],
            [
              -80.25614899991832,
              25.793851000203134
            ],
            [
              -80.25688700006022,
              25.79382299993485
            ],
            [
              -80.25805299982427,
              25.79378199961676
            ],
            [
              -80.25846200007818,
              25.793767999879684
            ],
            [
              -80.26142999964092,
              25.793664000279147
            ],
            [
              -80.26262700026545,
              25.793620000016297
            ],
            [
              -80.26293000021414,
              25.79360900015023
            ],
            [
              -80.26373299975505,
              25.7935640001728
            ],
            [
              -80.2638349998623,
              25.793558000390213
            ],
            [
              -80.2638929995886,
              25.793524000268427
            ],
            [
              -80.26394700001529,
              25.793506000104824
            ],
            [
              -80.2640180001604,
              25.793482999846894
            ],
            [
              -80.26404800029763,
              25.79345899988948
            ],
            [
              -80.26407800043485,
              25.79343499992722
            ],
            [
              -80.26416100027554,
              25.793365999907536
            ],
            [
              -80.26437800001051,
              25.793187999729902
            ],
            [
              -80.26440200029995,
              25.79316800012037
            ],
            [
              -80.26443499991193,
              25.79322100025102
            ],
            [
              -80.26462400005781,
              25.793219000048143
            ],
            [
              -80.26465500001994,
              25.793218000351082
            ],
            [
              -80.26509199986296,
              25.792967000096244
            ],
            [
              -80.26517100040398,
              25.7929210001756
            ],
            [
              -80.26545900028408,
              25.79266299976242
            ],
            [
              -80.2660800002501,
              25.79210400017644
            ],
            [
              -80.26621400014439,
              25.79210299966116
            ],
            [
              -80.26665900038333,
              25.791646999993635
            ],
            [
              -80.26811100037764,
              25.79021800014148
            ],
            [
              -80.2686290004115,
              25.78971000017148
            ],
            [
              -80.26920400034678,
              25.789122999844295
            ],
            [
              -80.26982399958956,
              25.78848500033116
            ],
            [
              -80.27025999960766,
              25.788012999793168
            ],
            [
              -80.27085999965729,
              25.787358000237102
            ],
            [
              -80.2708680000532,
              25.787349000092057
            ],
            [
              -80.27096099993962,
              25.787247999765448
            ],
            [
              -80.27116699980392,
              25.78702299976975
            ],
            [
              -80.27122500042857,
              25.787070000109694
            ],
            [
              -80.27126700026137,
              25.78710399965562
            ],
            [
              -80.27137000019353,
              25.78697600022002
            ],
            [
              -80.27144800001135,
              25.78687799963618
            ],
            [
              -80.27161700006573,
              25.78668599966066
            ],
            [
              -80.27208499987088,
              25.78606499989886
            ],
            [
              -80.27235299965949,
              25.785739000091265
            ],
            [
              -80.27272500010348,
              25.78534800022438
            ],
            [
              -80.27314100003008,
              25.784910000317748
            ],
            [
              -80.27384200036205,
              25.784180999617867
            ],
            [
              -80.27404700040147,
              25.783968000002204
            ],
            [
              -80.27409699973187,
              25.78389800036021
            ],
            [
              -80.27416000037937,
              25.78376299983618
            ],
            [
              -80.27417600027289,
              25.78372800036427
            ],
            [
              -80.27421399990772,
              25.783646999790445
            ],
            [
              -80.27422499977837,
              25.783624000046807
            ],
            [
              -80.27423599964904,
              25.783599999711736
            ],
            [
              -80.27425400009069,
              25.78356100026903
            ],
            [
              -80.27427400018217,
              25.783517000301668
            ],
            [
              -80.27434299977915,
              25.78336799999684
            ],
            [
              -80.27472199989583,
              25.782929000274333
            ],
            [
              -80.27507300042343,
              25.78252099961536
            ],
            [
              -80.27539200026567,
              25.78217599971762
            ],
            [
              -80.27582900010866,
              25.78174600019883
            ],
            [
              -80.27587900033738,
              25.78169400039592
            ],
            [
              -80.27621099970008,
              25.781351999910843
            ],
            [
              -80.27639900002106,
              25.781158000290077
            ],
            [
              -80.27672399971107,
              25.780822000304727
            ],
            [
              -80.27695399986483,
              25.78059899985881
            ],
            [
              -80.27731100024022,
              25.780317999755553
            ],
            [
              -80.27751799992944,
              25.780188999660833
            ],
            [
              -80.27764400032613,
              25.78011100013747
            ],
            [
              -80.27812300000194,
              25.779884999735533
            ],
            [
              -80.27838599976769,
              25.779790999813834
            ],
            [
              -80.27858900015727,
              25.779717999892117
            ],
            [
              -80.2786689996249,
              25.779688999711297
            ],
            [
              -80.27874499979289,
              25.779661999954925
            ],
            [
              -80.27894999983229,
              25.779588000141864
            ],
            [
              -80.27905100011463,
              25.77955199962585
            ],
            [
              -80.27906399963511,
              25.779549000188997
            ],
            [
              -80.27951200024708,
              25.77951599990777
            ],
            [
              -80.27966299985982,
              25.779502999917046
            ],
            [
              -80.2798439996098,
              25.779489000112072
            ],
            [
              -80.27995900013583,
              25.779480999991662
            ],
            [
              -80.28076500004977,
              25.779498999857374
            ],
            [
              -80.28091200036287,
              25.77950200010435
            ],
            [
              -80.28139900043459,
              25.779511999848545
            ],
            [
              -80.28165600035253,
              25.779529999709563
            ],
            [
              -80.28170700040617,
              25.779532999955748
            ],
            [
              -80.28171900010172,
              25.779535000389497
            ],
            [
              -80.28220100015056,
              25.779594999634273
            ],
            [
              -80.28221100019633,
              25.779596000255047
            ],
            [
              -80.28227999979329,
              25.779605000179536
            ],
            [
              -80.28234599991552,
              25.779614000103305
            ],
            [
              -80.28279500035241,
              25.77968300003559
            ],
            [
              -80.28341399977029,
              25.779857000214133
            ],
            [
              -80.28391300043589,
              25.779930000050356
            ],
            [
              -80.28491900036639,
              25.780078000012548
            ],
            [
              -80.28557299994436,
              25.780224000176936
            ],
            [
              -80.28567900024957,
              25.780237999895167
            ],
            [
              -80.28596499958152,
              25.78031399972336
            ],
            [
              -80.28658600044585,
              25.780478999927823
            ],
            [
              -80.28798700038656,
              25.78085200000987
            ],
            [
              -80.28802800039445,
              25.78085200000987
            ],
            [
              -80.28828100011444,
              25.78083599995235
            ],
            [
              -80.2884200000316,
              25.78083400034948
            ],
            [
              -80.28853300000951,
              25.78083199993763
            ],
            [
              -80.28860099978158,
              25.78083900016554
            ],
            [
              -80.28867500029975,
              25.780861999640276
            ],
            [
              -80.28873499967588,
              25.780864999852813
            ],
            [
              -80.28884500017904,
              25.78085299981119
            ],
            [
              -80.28890200008045,
              25.78082700012128
            ],
            [
              -80.28898999994401,
              25.780815000075815
            ],
            [
              -80.28912700021134,
              25.78082700012128
            ],
            [
              -80.28926899960327,
              25.78080700004484
            ],
            [
              -80.28935300016717,
              25.780782999948656
            ],
            [
              -80.2896090002602,
              25.7807559996324
            ],
            [
              -80.28964900044318,
              25.780745000190876
            ],
            [
              -80.28976300024598,
              25.780729999921274
            ],
            [
              -80.28996499991234,
              25.780688999929634
            ],
            [
              -80.290384000212,
              25.78062700001398
            ],
            [
              -80.29065299982553,
              25.780553999797807
            ],
            [
              -80.29079299956761,
              25.780508999719707
            ],
            [
              -80.29090899991856,
              25.780462999819992
            ],
            [
              -80.29105600023165,
              25.780416999902414
            ],
            [
              -80.2911440000952,
              25.78037699960789
            ],
            [
              -80.29121900043828,
              25.780333999882927
            ],
            [
              -80.29128200018746,
              25.780309999691045
            ],
            [
              -80.29133900008887,
              25.780300999820074
            ],
            [
              -80.29138400029471,
              25.780261000295347
            ],
            [
              -80.29140600003602,
              25.78025999968016
            ],
            [
              -80.29163399964165,
              25.780166999862676
            ],
            [
              -80.2919829996211,
              25.779977999774104
            ],
            [
              -80.29216099989634,
              25.77992400038685
            ],
            [
              -80.29216199972126,
              25.77990400015815
            ],
            [
              -80.29224399973702,
              25.779873000403693
            ],
            [
              -80.29226600037664,
              25.779873000403693
            ],
            [
              -80.29230900003435,
              25.779853999976115
            ],
            [
              -80.29239199987501,
              25.779828000067308
            ],
            [
              -80.29255699973146,
              25.779743000014403
            ],
            [
              -80.29275799957293,
              25.779623000026394
            ],
            [
              -80.29281500037266,
              25.779579000216113
            ],
            [
              -80.29298100005398,
              25.779479000365928
            ],
            [
              -80.29309099965886,
              25.779424999942627
            ],
            [
              -80.2932560004136,
              25.779320000082752
            ],
            [
              -80.29367300016513,
              25.779110000084223
            ],
            [
              -80.29393500010595,
              25.778941000323893
            ],
            [
              -80.29400500042613,
              25.778901000340593
            ],
            [
              -80.29407800022108,
              25.778875000222897
            ],
            [
              -80.2942210003362,
              25.77879000029611
            ],
            [
              -80.29436899957591,
              25.778711999852902
            ],
            [
              -80.29459000040715,
              25.778562999983745
            ],
            [
              -80.2946570003543,
              25.778535999971144
            ],
            [
              -80.29469599981405,
              25.778526000144662
            ],
            [
              -80.29473400034719,
              25.778499999944756
            ],
            [
              -80.29476100011136,
              25.77849500003013
            ],
            [
              -80.29477899965471,
              25.778485000200185
            ],
            [
              -80.2948539999978,
              25.7784649997289
            ],
            [
              -80.29501300000645,
              25.778390999978104
            ],
            [
              -80.29516399961919,
              25.778278999633436
            ],
            [
              -80.29550099990308,
              25.778070000043652
            ],
            [
              -80.29557500042125,
              25.778045000377727
            ],
            [
              -80.295685999851,
              25.777976000301667
            ],
            [
              -80.29598399977684,
              25.77780599990788
            ],
            [
              -80.29614000031077,
              25.777716999904335
            ],
            [
              -80.29637399976417,
              25.77762600017707
            ],
            [
              -80.29660300009303,
              25.77749800022034
            ],
            [
              -80.2966909999566,
              25.7774650001775
            ],
            [
              -80.29678800004096,
              25.777410999646364
            ],
            [
              -80.29681999982802,
              25.777388000311504
            ],
            [
              -80.2968969998209,
              25.777356999899602
            ],
            [
              -80.29700300012611,
              25.777285999760714
            ],
            [
              -80.29765000003141,
              25.776970999885343
            ],
            [
              -80.29820800024824,
              25.776699000231773
            ],
            [
              -80.29895399988771,
              25.776360000233726
            ],
            [
              -80.2994159998451,
              25.776149999849334
            ],
            [
              -80.30000000000119,
              25.775886000294804
            ],
            [
              -80.30007600016918,
              25.77584600009043
            ],
            [
              -80.300374000095,
              25.77571500029746
            ],
            [
              -80.30059000000507,
              25.775605000353423
            ],
            [
              -80.30110300001606,
              25.77538799970147
            ],
            [
              -80.30128700013908,
              25.775294000261383
            ],
            [
              -80.30129999965955,
              25.775288000363428
            ],
            [
              -80.30137500000262,
              25.77526399995967
            ],
            [
              -80.30144600014773,
              25.7752250002033
            ],
            [
              -80.30147799993479,
              25.775215000097756
            ],
            [
              -80.30149499965322,
              25.775205999840246
            ],
            [
              -80.30164299979123,
              25.775138000389386
            ],
            [
              -80.30183500031015,
              25.775047000301957
            ],
            [
              -80.30264299987392,
              25.77466600012921
            ],
            [
              -80.30278799963888,
              25.774606999863565
            ],
            [
              -80.30433199969471,
              25.773985999963397
            ],
            [
              -80.30441700008353,
              25.77394799964645
            ],
            [
              -80.30603800013226,
              25.773217999667875
            ],
            [
              -80.30755799989865,
              25.772530000322487
            ],
            [
              -80.30790600005318,
              25.772373000179773
            ],
            [
              -80.30821499984967,
              25.772233999988288
            ],
            [
              -80.30836700018564,
              25.77217799975455
            ],
            [
              -80.30847199976762,
              25.7766919997596
            ],
            [
              -80.30848099998846,
              25.77711000019027
            ],
            [
              -80.30848600001131,
              25.77730999975544
            ],
            [
              -80.30855200013356,
              25.777127999606773
            ],
            [
              -80.30860900003498,
              25.776980000008972
            ],
            [
              -80.30863900017219,
              25.776897999846238
            ],
            [
              -80.30934800000176,
              25.774973000037168
            ],
            [
              -80.30944099988818,
              25.7746810003566
            ],
            [
              -80.30951299985821,
              25.77436600003678
            ],
            [
              -80.309554999691,
              25.77406500013636
            ],
            [
              -80.30957200030775,
              25.7737290002862
            ],
            [
              -80.30954100034562,
              25.772176999880163
            ],
            [
              -80.30952999957664,
              25.771644000098608
            ],
            [
              -80.30967799971464,
              25.771532999736657
            ],
            [
              -80.30972200009558,
              25.771499999652786
            ],
            [
              -80.30987400043155,
              25.771384999631902
            ],
            [
              -80.31004299958762,
              25.77129300002033
            ],
            [
              -80.3101749998321,
              25.77121999972384
            ],
            [
              -80.31033700021382,
              25.771154000181756
            ],
            [
              -80.31040599981078,
              25.771125000334603
            ],
            [
              -80.31050799991804,
              25.77109200013725
            ],
            [
              -80.31064199981235,
              25.771039999709593
            ],
            [
              -80.31073100039912,
              25.770995999952223
            ],
            [
              -80.31083699980601,
              25.770952000178518
            ],
            [
              -80.31090399975317,
              25.770915000392968
            ],
            [
              -80.31101199970819,
              25.770878999672266
            ],
            [
              -80.31117400008989,
              25.770805000044124
            ],
            [
              -80.31126699997633,
              25.770725000241153
            ],
            [
              -80.31135599966478,
              25.770662999972494
            ],
            [
              -80.31146699999287,
              25.770638000363896
            ],
            [
              -80.31161199975782,
              25.770605000031118
            ],
            [
              -80.31166000033672,
              25.770576000049783
            ],
            [
              -80.3118219998201,
              25.770566000361438
            ],
            [
              -80.3118710002239,
              25.770577999825562
            ],
            [
              -80.31192300010244,
              25.770611000165847
            ],
            [
              -80.31201299961582,
              25.77068699968891
            ],
            [
              -80.31209100033193,
              25.770717000338777
            ],
            [
              -80.31223400044706,
              25.770740000157755
            ],
            [
              -80.31233800020414,
              25.770756999845236
            ],
            [
              -80.31243500028852,
              25.770757999731593
            ],
            [
              -80.31247399974826,
              25.770751999604283
            ],
            [
              -80.31254700044153,
              25.770728999787647
            ],
            [
              -80.31259900032005,
              25.770648999933446
            ],
            [
              -80.31264700000062,
              25.770605000031118
            ],
            [
              -80.3126939998563,
              25.770578999713457
            ],
            [
              -80.31277599987206,
              25.77048399981108
            ],
            [
              -80.31304500038388,
              25.770141000288536
            ],
            [
              -80.31311999982864,
              25.77000899996753
            ],
            [
              -80.3134610003105,
              25.769714999607498
            ],
            [
              -80.31404399974336,
              25.769438999910964
            ],
            [
              -80.3146730001053,
              25.769020000062305
            ],
            [
              -80.31524700021566,
              25.768582999642437
            ],
            [
              -80.31577399957204,
              25.768089000395914
            ],
            [
              -80.31681499966261,
              25.766760000028384
            ],
            [
              -80.31711299958845,
              25.766253999766494
            ],
            [
              -80.31736799985659,
              25.765664000081973
            ],
            [
              -80.31768400022406,
              25.764832000186352
            ],
            [
              -80.31795299983759,
              25.763935999689302
            ],
            [
              -80.31814000033366,
              25.76345899963415
            ],
            [
              -80.31819899988488,
              25.76330700018236
            ],
            [
              -80.31828500009861,
              25.763165999989948
            ],
            [
              -80.31833500032732,
              25.76310299986706
            ],
            [
              -80.31838999968059,
              25.76304400032522
            ],
            [
              -80.31841099959699,
              25.763023999678545
            ],
            [
              -80.31845099977997,
              25.76298899975235
            ],
            [
              -80.31855000041249,
              25.762916000011696
            ]
          ]
        ]
      },
      "properties": {
        "AREALAND": "93231938",
        "AREAWATER": "51996473",
        "BASENAME": "Miami",
        "CBSAPCI": "Y",
        "CENTLAT": "+25.7752274",
        "CENTLON": "-080.2088142",
        "FUNCSTAT": "A",
        "GEOID": "1245000",
        "INTPTLAT": "+25.7751630",
        "INTPTLON": "-080.2086152",
        "LSADC": "25",
        "MTFCC": "G4110",
        "NAME": "Miami city",
        "NECTAPCI": "N",
        "OBJECTID": 31232,
        "OID": "27890385021811",
        "PLACE": "45000",
        "PLACECC": "C1",
        "PLACENS": "02404247",
        "STATE": "12",
        "DISP_CLR": 3
      }
    }
  ],
  "metadata": {
    "boundary": "City of Miami incorporated place boundary",
    "source_name": "U.S. Census Bureau TIGERweb",
    "source_url": "https://tigerweb.geo.census.gov/",
    "api_url": "https://tigerweb.geo.census.gov/arcgis/rest/services/TIGERweb/Places_CouSub_ConCity_SubMCD/MapServer/4/query?where=STATE%3D%2712%27+AND+BASENAME%3D%27Miami%27&outFields=*&returnGeometry=true&outSR=4326&f=geojson",
    "license": "Public domain; cite U.S. Census Bureau",
    "generated_at": "2026-06-12T17:04:12.984Z",
    "feature_count": 1,
    "notes": "Census TIGERweb Incorporated Places layer, January 1 2025 vintage. Used for City of Miami boundary filtering."
  }
}